start=new Date('2023-02-28T00:00:00.000Z').valueOf();
sats=[{"REV_AT_EPOCH":"6952","OBJECT_TYPE":"PAYLOAD","INCLINATION":"53.2152","ARG_OF_PERICENTER":"102.4099","CLASSIFICATION_TYPE":"U","LAUNCH_DATE":"2021-12-18","PERIAPSIS":"540.236","GP_ID":"227195079","RCS_SIZE":"LARGE","OBJECT_NAME":"STARLINK-3271","MEAN_MOTION_DOT":"0.00041875","OBJECT_ID":"2021-125M","MEAN_MOTION_DDOT":"0.0000000000000","REF_FRAME":"TEME","CENTER_NAME":"EARTH","MEAN_ELEMENT_THEORY":"SGP4","BSTAR":"0.00266460000000","NORAD_CAT_ID":"50167","PERIOD":"95.465","TLE_LINE1":"1 50167U 21125M   23058.93873159  .00041875  00000-0  26646-2 0  9994","SEMIMAJOR_AXIS":"6919.194","RA_OF_ASC_NODE":"183.0352","MEAN_ANOMALY":"257.7027","SITE":"AFWTR","FILE":"3846812","DECAY_DATE":null,"ECCENTRICITY":"0.00011890","TIME_SYSTEM":"UTC","EPOCH":"2023-02-27T22:31:46.409376","ELEMENT_SET_NO":"999","TLE_LINE2":"2 50167  53.2152 183.0352 0001189 102.4099 257.7027 15.08410307 69526","MEAN_MOTION":"15.08410307","COUNTRY_CODE":"US","EPHEMERIS_TYPE":"0","APOAPSIS":"541.882"},{"APOAPSIS":"541.940","EPHEMERIS_TYPE":"0","COUNTRY_CODE":"US","MEAN_MOTION":"15.08872035","TLE_LINE2":"2 50168  53.2159 173.5171 0003314  13.9183 346.1900 15.08872035 69656","ELEMENT_SET_NO":"999","EPOCH":"2023-02-27T19:58:09.870816","TIME_SYSTEM":"UTC","ECCENTRICITY":"0.00033140","DECAY_DATE":null,"FILE":"3846812","SITE":"AFWTR","MEAN_ANOMALY":"346.1900","RA_OF_ASC_NODE":"173.5171","SEMIMAJOR_AXIS":"6917.782","TLE_LINE1":"1 50168U 21125N   23058.83205869  .00009456  00000-0  61090-3 0  9993","PERIOD":"95.436","NORAD_CAT_ID":"50168","BSTAR":"0.00061090000000","MEAN_ELEMENT_THEORY":"SGP4","CENTER_NAME":"EARTH","REF_FRAME":"TEME","MEAN_MOTION_DDOT":"0.0000000000000","OBJECT_ID":"2021-125N","MEAN_MOTION_DOT":"0.00009456","OBJECT_NAME":"STARLINK-3296","RCS_SIZE":"LARGE","GP_ID":"227195329","PERIAPSIS":"537.355","LAUNCH_DATE":"2021-12-18","CLASSIFICATION_TYPE":"U","ARG_OF_PERICENTER":"13.9183","INCLINATION":"53.2159","OBJECT_TYPE":"PAYLOAD","REV_AT_EPOCH":"6965"},{"REF_FRAME":"TEME","CENTER_NAME":"EARTH","MEAN_ELEMENT_THEORY":"SGP4","BSTAR":"0.00203420000000","NORAD_CAT_ID":"50169","OBJECT_NAME":"STARLINK-3301","MEAN_MOTION_DOT":"0.00032280","OBJECT_ID":"2021-125P","MEAN_MOTION_DDOT":"0.0000000000000","PERIAPSIS":"538.599","LAUNCH_DATE":"2021-12-18","GP_ID":"227196080","RCS_SIZE":"LARGE","REV_AT_EPOCH":"6965","OBJECT_TYPE":"PAYLOAD","ARG_OF_PERICENTER":"100.8679","INCLINATION":"53.2171","CLASSIFICATION_TYPE":"U","TLE_LINE2":"2 50169  53.2171 173.6330 0001434 100.8679 259.2474 15.08890453 69650","MEAN_MOTION":"15.08890453","EPHEMERIS_TYPE":"0","COUNTRY_CODE":"US","APOAPSIS":"540.583","ECCENTRICITY":"0.00014340","TIME_SYSTEM":"UTC","EPOCH":"2023-02-27T19:15:47.382336","ELEMENT_SET_NO":"999","MEAN_ANOMALY":"259.2474","SITE":"AFWTR","FILE":"3846812","DECAY_DATE":null,"PERIOD":"95.434","TLE_LINE1":"1 50169U 21125P   23058.80263174  .00032280  00000-0  20342-2 0  9999","SEMIMAJOR_AXIS":"6917.726","RA_OF_ASC_NODE":"173.6330"},{"APOAPSIS":"540.519","EPHEMERIS_TYPE":"0","COUNTRY_CODE":"US","MEAN_MOTION":"15.08916020","TLE_LINE2":"2 50170  53.2140 173.8413 0001454  86.9785 273.1373 15.08916020 69636","EPOCH":"2023-02-27T18:12:12.193344","ELEMENT_SET_NO":"999","TIME_SYSTEM":"UTC","ECCENTRICITY":"0.00014540","DECAY_DATE":null,"FILE":"3846812","SITE":"AFWTR","MEAN_ANOMALY":"273.1373","RA_OF_ASC_NODE":"173.8413","SEMIMAJOR_AXIS":"6917.648","TLE_LINE1":"1 50170U 21125Q   23058.75847446  .00079901  00000-0  49717-2 0  9993","PERIOD":"95.433","NORAD_CAT_ID":"50170","BSTAR":"0.00497170000000","CENTER_NAME":"EARTH","REF_FRAME":"TEME","MEAN_ELEMENT_THEORY":"SGP4","MEAN_MOTION_DDOT":"0.0000000000000","OBJECT_ID":"2021-125Q","MEAN_MOTION_DOT":"0.00079901","OBJECT_NAME":"STARLINK-3245","GP_ID":"227195831","RCS_SIZE":"LARGE","LAUNCH_DATE":"2021-12-18","PERIAPSIS":"538.507","CLASSIFICATION_TYPE":"U","INCLINATION":"53.2140","ARG_OF_PERICENTER":"86.9785","OBJECT_TYPE":"PAYLOAD","REV_AT_EPOCH":"6963"},{"OBJECT_NAME":"STARLINK-3286","MEAN_MOTION_DDOT":"0.0000000000000","OBJECT_ID":"2021-125R","MEAN_MOTION_DOT":"0.00057937","BSTAR":"0.00362350000000","CENTER_NAME":"EARTH","MEAN_ELEMENT_THEORY":"SGP4","REF_FRAME":"TEME","NORAD_CAT_ID":"50171","ARG_OF_PERICENTER":"61.0198","INCLINATION":"53.2125","OBJECT_TYPE":"PAYLOAD","REV_AT_EPOCH":"6965","CLASSIFICATION_TYPE":"U","LAUNCH_DATE":"2021-12-18","PERIAPSIS":"538.685","GP_ID":"227194580","RCS_SIZE":"LARGE","ECCENTRICITY":"0.00013030","ELEMENT_SET_NO":"999","EPOCH":"2023-02-27T20:08:47.551200","TIME_SYSTEM":"UTC","MEAN_MOTION":"15.08892000","TLE_LINE2":"2 50171  53.2125 173.4747 0001303  61.0198 299.0924 15.08892000 69653","APOAPSIS":"540.488","COUNTRY_CODE":"US","EPHEMERIS_TYPE":"0","PERIOD":"95.434","RA_OF_ASC_NODE":"173.4747","SEMIMAJOR_AXIS":"6917.721","TLE_LINE1":"1 50171U 21125R   23058.83943925  .00057937  00000-0  36235-2 0  9998","SITE":"AFWTR","MEAN_ANOMALY":"299.0924","DECAY_DATE":null,"FILE":"3846812"},{"MEAN_ANOMALY":"290.7874","SITE":"AFWTR","FILE":"3846812","DECAY_DATE":null,"PERIOD":"95.433","TLE_LINE1":"1 50172U 21125S   23058.75111191  .00053760  00000-0  33634-2 0  9992","RA_OF_ASC_NODE":"173.8771","SEMIMAJOR_AXIS":"6917.650","TLE_LINE2":"2 50172  53.2148 173.8771 0001123  69.3238 290.7874 15.08915514 69676","MEAN_MOTION":"15.08915514","APOAPSIS":"540.291","EPHEMERIS_TYPE":"0","COUNTRY_CODE":"US","ECCENTRICITY":"0.00011230","EPOCH":"2023-02-27T18:01:36.069024","ELEMENT_SET_NO":"999","TIME_SYSTEM":"UTC","PERIAPSIS":"538.738","LAUNCH_DATE":"2021-12-18","RCS_SIZE":"LARGE","GP_ID":"227194830","OBJECT_TYPE":"PAYLOAD","REV_AT_EPOCH":"6967","INCLINATION":"53.2148","ARG_OF_PERICENTER":"69.3238","CLASSIFICATION_TYPE":"U","REF_FRAME":"TEME","CENTER_NAME":"EARTH","MEAN_ELEMENT_THEORY":"SGP4","BSTAR":"0.00336340000000","NORAD_CAT_ID":"50172","OBJECT_NAME":"STARLINK-3287","MEAN_MOTION_DOT":"0.00053760","MEAN_MOTION_DDOT":"0.0000000000000","OBJECT_ID":"2021-125S"},{"MEAN_ANOMALY":"212.6720","SITE":"AFWTR","FILE":"3846812","DECAY_DATE":null,"PERIOD":"95.434","TLE_LINE1":"1 50173U 21125T   23058.77874885  .00035485  00000-0  22332-2 0  9998","RA_OF_ASC_NODE":"163.7418","SEMIMAJOR_AXIS":"6917.716","TLE_LINE2":"2 50173  53.2150 163.7418 0001779 147.4382 212.6720 15.08893706 69795","MEAN_MOTION":"15.08893706","APOAPSIS":"540.812","EPHEMERIS_TYPE":"0","COUNTRY_CODE":"US","ECCENTRICITY":"0.00017790","EPOCH":"2023-02-27T18:41:23.900640","ELEMENT_SET_NO":"999","TIME_SYSTEM":"UTC","LAUNCH_DATE":"2021-12-18","PERIAPSIS":"538.351","GP_ID":"227195581","RCS_SIZE":"LARGE","OBJECT_TYPE":"PAYLOAD","REV_AT_EPOCH":"6979","INCLINATION":"53.2150","ARG_OF_PERICENTER":"147.4382","CLASSIFICATION_TYPE":"U","MEAN_ELEMENT_THEORY":"SGP4","CENTER_NAME":"EARTH","REF_FRAME":"TEME","BSTAR":"0.00223320000000","NORAD_CAT_ID":"50173","OBJECT_NAME":"STARLINK-3289","MEAN_MOTION_DOT":"0.00035485","MEAN_MOTION_DDOT":"0.0000000000000","OBJECT_ID":"2021-125T"},{"EPOCH":"2023-02-27T19:21:05.654880","ELEMENT_SET_NO":"999","TIME_SYSTEM":"UTC","ECCENTRICITY":"0.00011940","APOAPSIS":"540.392","EPHEMERIS_TYPE":"0","COUNTRY_CODE":"US","MEAN_MOTION":"15.08898544","TLE_LINE2":"2 50174  53.2142 173.6241 0001194 110.2761 249.8359 15.08898544 69695","RA_OF_ASC_NODE":"173.6241","SEMIMAJOR_AXIS":"6917.701","TLE_LINE1":"1 50174U 21125U   23058.80631545  .00059079  00000-0  36933-2 0  9994","PERIOD":"95.434","DECAY_DATE":null,"FILE":"3846812","SITE":"AFWTR","MEAN_ANOMALY":"249.8359","MEAN_MOTION_DDOT":"0.0000000000000","OBJECT_ID":"2021-125U","MEAN_MOTION_DOT":"0.00059079","OBJECT_NAME":"STARLINK-3292","NORAD_CAT_ID":"50174","BSTAR":"0.00369330000000","MEAN_ELEMENT_THEORY":"SGP4","CENTER_NAME":"EARTH","REF_FRAME":"TEME","CLASSIFICATION_TYPE":"U","INCLINATION":"53.2142","ARG_OF_PERICENTER":"110.2761","OBJECT_TYPE":"PAYLOAD","REV_AT_EPOCH":"6969","RCS_SIZE":"LARGE","GP_ID":"227196331","PERIAPSIS":"538.740","LAUNCH_DATE":"2021-12-18"},{"MEAN_MOTION_DOT":"0.00066257","MEAN_MOTION_DDOT":"0.0000000000000","OBJECT_ID":"2021-125V","OBJECT_NAME":"STARLINK-3291","NORAD_CAT_ID":"50175","REF_FRAME":"TEME","CENTER_NAME":"EARTH","MEAN_ELEMENT_THEORY":"SGP4","BSTAR":"0.00413500000000","CLASSIFICATION_TYPE":"U","OBJECT_TYPE":"PAYLOAD","REV_AT_EPOCH":"6965","INCLINATION":"53.2130","ARG_OF_PERICENTER":"105.7474","RCS_SIZE":"LARGE","GP_ID":"227195080","PERIAPSIS":"538.682","LAUNCH_DATE":"2021-12-18","EPOCH":"2023-02-27T19:52:53.234688","ELEMENT_SET_NO":"999","TIME_SYSTEM":"UTC","ECCENTRICITY":"0.00012500","APOAPSIS":"540.412","EPHEMERIS_TYPE":"0","COUNTRY_CODE":"US","TLE_LINE2":"2 50175  53.2130 173.5244 0001250 105.7474 254.3656 15.08904950 69654","MEAN_MOTION":"15.08904950","TLE_LINE1":"1 50175U 21125V   23058.82839392  .00066257  00000-0  41350-2 0  9992","RA_OF_ASC_NODE":"173.5244","SEMIMAJOR_AXIS":"6917.682","PERIOD":"95.433","FILE":"3846812","DECAY_DATE":null,"MEAN_ANOMALY":"254.3656","SITE":"AFWTR"},{"TLE_LINE2":"2 50176  53.2147 173.6081 0001185  92.7719 267.3409 15.08902718 69691","MEAN_MOTION":"15.08902718","APOAPSIS":"540.373","EPHEMERIS_TYPE":"0","COUNTRY_CODE":"US","ECCENTRICITY":"0.00011850","EPOCH":"2023-02-27T19:26:23.725248","ELEMENT_SET_NO":"999","TIME_SYSTEM":"UTC","MEAN_ANOMALY":"267.3409","SITE":"AFWTR","FILE":"3846812","DECAY_DATE":null,"PERIOD":"95.434","TLE_LINE1":"1 50176U 21125W   23058.80999682  .00070588  00000-0  44017-2 0  9995","RA_OF_ASC_NODE":"173.6081","SEMIMAJOR_AXIS":"6917.689","MEAN_ELEMENT_THEORY":"SGP4","CENTER_NAME":"EARTH","REF_FRAME":"TEME","BSTAR":"0.00440170000000","NORAD_CAT_ID":"50176","OBJECT_NAME":"STARLINK-3293","MEAN_MOTION_DOT":"0.00070588","MEAN_MOTION_DDOT":"0.0000000000000","OBJECT_ID":"2021-125W","PERIAPSIS":"538.734","LAUNCH_DATE":"2021-12-18","RCS_SIZE":"LARGE","GP_ID":"227195330","OBJECT_TYPE":"PAYLOAD","REV_AT_EPOCH":"6969","ARG_OF_PERICENTER":"92.7719","INCLINATION":"53.2147","CLASSIFICATION_TYPE":"U"}];
